stk.v.4.3
BEGIN Ephemeris
NumberOfEphemerisPoints 30001
ScenarioEpoch           1 Jan 2000 12:0:0.0000
InterpolationOrder      5
DistanceUnit            Meters
CentralBody             Earth
CoordinateSystem        Fixed
EphemerisTimePosVel
52.8  952492.5659 7136381.88 67980.8495 -6744.7232 887.4256 1289.9085
52.9  951818.0892 7136470.5895 68109.8399 -6744.8116 886.7647 1289.9012
53  951143.6036 7136559.233 68238.8297 -6744.8999 886.1038 1289.8939
53.1  950469.1092 7136647.8103 68367.8187 -6744.9882 885.4429 1289.8866
53.2  949794.606 7136736.3216 68496.807 -6745.0764 884.782 1289.8793
53.3  949120.0939 7136824.7667 68625.7946 -6745.1645 884.1211 1289.8719
53.4  948445.5731 7136913.1458 68754.7814 -6745.2526 883.4601 1289.8645
53.5  947771.0434 7137001.4587 68883.7675 -6745.3406 882.7992 1289.8572
53.6  947096.505 7137089.7056 69012.7528 -6745.4285 882.1382 1289.8498
53.7  946421.9577 7137177.8864 69141.7374 -6745.5164 881.4773 1289.8424
53.8  945747.4017 7137266.0011 69270.7213 -6745.6042 880.8163 1289.8349
53.9  945072.8369 7137354.0496 69399.7044 -6745.6919 880.1553 1289.8275
54  944398.2633 7137442.0321 69528.6868 -6745.7796 879.4943 1289.82
54.1  943723.681 7137529.9485 69657.6684 -6745.8673 878.8333 1289.8126
54.2  943049.0899 7137617.7988 69786.6493 -6745.9548 878.1723 1289.8051
54.3  942374.49 7137705.583 69915.6294 -6746.0423 877.5113 1289.7976
54.4  941699.8814 7137793.301 70044.6088 -6746.1298 876.8503 1289.7901
54.5  941025.2641 7137880.953 70173.5875 -6746.2171 876.1893 1289.7826
54.6  940350.638 7137968.5389 70302.5654 -6746.3045 875.5282 1289.7751
54.7  939676.0032 7138056.0587 70431.5425 -6746.3917 874.8672 1289.7675
54.8  939001.3596 7138143.5123 70560.5189 -6746.4789 874.2061 1289.7599
54.9  938326.7074 7138230.8999 70689.4945 -6746.566 873.5451 1289.7524
55  937652.0464 7138318.2214 70818.4693 -6746.6531 872.884 1289.7448
55.1  936977.3768 7138405.4767 70947.4434 -6746.7401 872.2229 1289.7372
55.2  936302.6984 7138492.6659 71076.4168 -6746.8271 871.5619 1289.7296
55.3  935628.0114 7138579.7891 71205.3893 -6746.914 870.9008 1289.7219
55.4  934953.3156 7138666.8461 71334.3611 -6747.0008 870.2397 1289.7143
55.5  934278.6112 7138753.837 71463.3322 -6747.0875 869.5786 1289.7066
55.6  933603.8981 7138840.7618 71592.3025 -6747.1742 868.9174 1289.699
55.7  932929.1764 7138927.6205 71721.272 -6747.2609 868.2563 1289.6913
55.8  932254.446 7139014.4131 71850.2407 -6747.3474 867.5952 1289.6836
55.9  931579.7069 7139101.1395 71979.2087 -6747.4339 866.9341 1289.6759
56  930904.9592 7139187.7999 72108.1759 -6747.5204 866.2729 1289.6681
56.1  930230.2028 7139274.3941 72237.1423 -6747.6068 865.6117 1289.6604
56.2  929555.4378 7139360.9222 72366.108 -6747.6931 864.9506 1289.6526
56.3  928880.6642 7139447.3842 72495.0729 -6747.7794 864.2894 1289.6449
56.4  928205.8819 7139533.7801 72624.037 -6747.8656 863.6282 1289.6371
56.5  927531.0911 7139620.1099 72753.0003 -6747.9517 862.967 1289.6293
56.6  926856.2916 7139706.3735 72881.9628 -6748.0378 862.3059 1289.6215
56.7  926181.4835 7139792.5711 73010.9246 -6748.1238 861.6446 1289.6137
56.8  925506.6668 7139878.7025 73139.8856 -6748.2097 860.9834 1289.6058
56.9  924831.8416 7139964.7677 73268.8457 -6748.2956 860.3222 1289.598
57  924157.0077 7140050.7669 73397.8051 -6748.3815 859.661 1289.5901
57.1  923482.1653 7140136.6999 73526.7638 -6748.4672 858.9998 1289.5822
57.2  922807.3143 7140222.5669 73655.7216 -6748.5529 858.3385 1289.5743
57.3  922132.4547 7140308.3676 73784.6786 -6748.6386 857.6773 1289.5664
57.4  921457.5866 7140394.1023 73913.6349 -6748.7241 857.016 1289.5585
57.5  920782.7099 7140479.7708 74042.5903 -6748.8097 856.3547 1289.5506
57.6  920107.8246 7140565.3733 74171.545 -6748.8951 855.6935 1289.5426
57.7  919432.9309 7140650.9095 74300.4989 -6748.9805 855.0322 1289.5347
57.8  918758.0285 7140736.3797 74429.4519 -6749.0658 854.3709 1289.5267
57.9  918083.1177 7140821.7837 74558.4042 -6749.1511 853.7096 1289.5187
58  917408.1983 7140907.1216 74687.3557 -6749.2363 853.0483 1289.5107
58.1  916733.2704 7140992.3934 74816.3063 -6749.3214 852.387 1289.5027
58.2  916058.334 7141077.599 74945.2562 -6749.4065 851.7257 1289.4947
58.3  915383.3891 7141162.7385 75074.2053 -6749.4915 851.0643 1289.4866
58.4  914708.4357 7141247.8119 75203.1535 -6749.5765 850.403 1289.4786
58.5  914033.4738 7141332.8191 75332.101 -6749.6614 849.7416 1289.4705
58.6  913358.5035 7141417.7602 75461.0476 -6749.7462 849.0803 1289.4624
58.7  912683.5246 7141502.6352 75589.9935 -6749.831 848.4189 1289.4543
58.8  912008.5373 7141587.444 75718.9385 -6749.9157 847.7576 1289.4462
58.9  911333.5415 7141672.1867 75847.8827 -6750.0003 847.0962 1289.4381
59  910658.5372 7141756.8632 75976.8261 -6750.0849 846.4348 1289.4299
59.1  909983.5245 7141841.4736 76105.7687 -6750.1695 845.7734 1289.4218
59.2  909308.5033 7141926.0179 76234.7105 -6750.2539 845.112 1289.4136
59.3  908633.4737 7142010.496 76363.6514 -6750.3383 844.4506 1289.4054
59.4  907958.4356 7142094.908 76492.5915 -6750.4226 843.7892 1289.3972
59.5  907283.3892 7142179.2539 76621.5309 -6750.5069 843.1278 1289.389
59.6  906608.3343 7142263.5336 76750.4693 -6750.5911 842.4663 1289.3808
59.7  905933.2709 7142347.7471 76879.407 -6750.6753 841.8049 1289.3725
59.8  905258.1992 7142431.8946 77008.3439 -6750.7594 841.1434 1289.3643
59.9  904583.1191 7142515.9758 77137.2799 -6750.8434 840.482 1289.356
60  903908.0305 7142599.9909 77266.2151 -6750.9273 839.8205 1289.3477
60.1  903232.9336 7142683.9399 77395.1494 -6751.0112 839.1591 1289.3395
60.2  902557.8283 7142767.8228 77524.0829 -6751.0951 838.4976 1289.3311
60.3  901882.7146 7142851.6394 77653.0156 -6751.1789 837.8361 1289.3228
60.4  901207.5925 7142935.39 77781.9475 -6751.2626 837.1746 1289.3145
60.5  900532.4621 7143019.0744 77910.8785 -6751.3462 836.5131 1289.3061
60.6  899857.3233 7143102.6926 78039.8087 -6751.4298 835.8516 1289.2978
60.7  899182.1761 7143186.2447 78168.7381 -6751.5133 835.1901 1289.2894
60.8  898507.0206 7143269.7306 78297.6666 -6751.5968 834.5286 1289.281
60.9  897831.8568 7143353.1504 78426.5943 -6751.6802 833.867 1289.2726
61  897156.6846 7143436.504 78555.5211 -6751.7635 833.2055 1289.2642
61.1  896481.5041 7143519.7915 78684.4471 -6751.8468 832.5439 1289.2558
61.2  895806.3152 7143603.0128 78813.3723 -6751.93 831.8824 1289.2473
61.3  895131.118 7143686.168 78942.2966 -6752.0132 831.2208 1289.2389
61.4  894455.9126 7143769.257 79071.2201 -6752.0963 830.5593 1289.2304
61.5  893780.6988 7143852.2798 79200.1427 -6752.1793 829.8977 1289.2219
61.6  893105.4767 7143935.2365 79329.0644 -6752.2623 829.2361 1289.2134
61.7  892430.2463 7144018.127 79457.9854 -6752.3452 828.5745 1289.2049
61.8  891755.0077 7144100.9514 79586.9054 -6752.428 827.9129 1289.1964
61.9  891079.7607 7144183.7096 79715.8246 -6752.5108 827.2513 1289.1878
62  890404.5055 7144266.4017 79844.743 -6752.5935 826.5897 1289.1793
62.1  889729.242 7144349.0276 79973.6605 -6752.6762 825.9281 1289.1707
62.2  889053.9703 7144431.5873 80102.5771 -6752.7588 825.2664 1289.1621
62.3  888378.6903 7144514.0808 80231.4929 -6752.8413 824.6048 1289.1535
62.4  887703.402 7144596.5082 80360.4078 -6752.9238 823.9431 1289.1449
62.5  887028.1055 7144678.8695 80489.3219 -6753.0062 823.2815 1289.1363
62.6  886352.8008 7144761.1645 80618.2351 -6753.0885 822.6198 1289.1276
62.7  885677.4878 7144843.3934 80747.1474 -6753.1708 821.9582 1289.119
62.8  885002.1666 7144925.5562 80876.0589 -6753.253 821.2965 1289.1103
62.9  884326.8372 7145007.6527 81004.9695 -6753.3352 820.6348 1289.1016
63  883651.4996 7145089.6831 81133.8792 -6753.4173 819.9731 1289.0929
63.1  882976.1537 7145171.6474 81262.7881 -6753.4993 819.3114 1289.0842
63.2  882300.7997 7145253.5454 81391.6961 -6753.5813 818.6497 1289.0755
63.3  881625.4375 7145335.3773 81520.6032 -6753.6632 817.988 1289.0668
63.4  880950.0671 7145417.143 81649.5094 -6753.7451 817.3263 1289.058
63.5  880274.6885 7145498.8425 81778.4148 -6753.8268 816.6645 1289.0493
63.6  879599.3017 7145580.4759 81907.3193 -6753.9086 816.0028 1289.0405
63.7  878923.9068 7145662.0431 82036.2229 -6753.9902 815.3411 1289.0317
63.8  878248.5037 7145743.5441 82165.1256 -6754.0718 814.6793 1289.0229
63.9  877573.0924 7145824.979 82294.0275 -6754.1534 814.0176 1289.0141
64  876897.673 7145906.3476 82422.9284 -6754.2348 813.3558 1289.0052
64.1  876222.2454 7145987.6501 82551.8285 -6754.3163 812.694 1288.9964
64.2  875546.8097 7146068.8864 82680.7277 -6754.3976 812.0322 1288.9875
64.3  874871.3659 7146150.0566 82809.626 -6754.4789 811.3704 1288.9787
64.4  874195.914 7146231.1605 82938.5234 -6754.5601 810.7086 1288.9698
64.5  873520.4539 7146312.1983 83067.42 -6754.6413 810.0468 1288.9609
64.6  872844.9857 7146393.1699 83196.3156 -6754.7224 809.385 1288.952
64.7  872169.5094 7146474.0753 83325.2104 -6754.8034 808.7232 1288.943
64.8  871494.025 7146554.9145 83454.1042 -6754.8844 808.0614 1288.9341
64.9  870818.5325 7146635.6876 83582.9972 -6754.9653 807.3996 1288.9251
65  870143.032 7146716.3944 83711.8892 -6755.0462 806.7377 1288.9162
65.1  869467.5233 7146797.0351 83840.7804 -6755.127 806.0759 1288.9072
65.2  868792.0066 7146877.6096 83969.6707 -6755.2077 805.414 1288.8982
65.3  868116.4818 7146958.1179 84098.56 -6755.2884 804.7521 1288.8892
65.4  867440.9489 7147038.56 84227.4485 -6755.369 804.0903 1288.8801
65.5  866765.408 7147118.936 84356.3361 -6755.4495 803.4284 1288.8711
65.6  866089.859 7147199.2457 84485.2227 -6755.53 802.7665 1288.8621
65.7  865414.302 7147279.4893 84614.1085 -6755.6104 802.1046 1288.853
65.8  864738.7369 7147359.6666 84742.9933 -6755.6907 801.4427 1288.8439
65.9  864063.1638 7147439.7778 84871.8773 -6755.771 800.7808 1288.8348
66  863387.5827 7147519.8228 85000.7603 -6755.8513 800.1189 1288.8257
66.1  862711.9936 7147599.8016 85129.6424 -6755.9314 799.457 1288.8166
66.2  862036.3964 7147679.7142 85258.5236 -6756.0115 798.795 1288.8074
END Ephemeris